ORBCOMM FM37 [-]        
1 33064U 08031E   23349.37358094  .00001336  00000+0  22379-3 0  9996
2 33064  48.4422  68.4388 0005917 190.9713 282.7762 14.75559977832748
ORBCOMM FM40 [-]        
1 33065U 08031F   23349.35763208  .00001758  00000+0  27777-3 0  9997
2 33065  48.4440  59.2052 0007304 198.0027 279.0555 14.76693482832766
VESSELSAT 1 [-]         
1 37840U 11058C   23349.70175132  .00000346  00000+0  44475-4 0  9994
2 37840  19.9603 178.1039 0013834 262.8599  97.0233 14.11093176628598
ORBCOMM FM109 [+]       
1 40086U 14040A   23349.41819521  .00000726  00000+0  20033-3 0  9994
2 40086  47.0039  88.5524 0002594 289.6788  70.3817 14.56165149500882
ORBCOMM FM107 [+]       
1 40087U 14040B   23349.38363476  .00000705  00000+0  19575-3 0  9990
2 40087  47.0058  89.6560 0002401 261.9584  98.1029 14.56158440500957
ORBCOMM FM106 [-]       
1 40088U 14040C   23348.97950695  .00000959  00000+0  20470-3 0  9997
2 40088  47.0625 315.4805 0018055  33.0692 327.1323 14.66342557502645
ORBCOMM FM111 [-]       
1 40089U 14040D   23349.78061645  .00001705  00000+0  24511-3 0  9996
2 40089  47.0034 229.7067 0032707  92.7534 267.7105 14.80578008508667
ORBCOMM FM104 [-]       
1 40090U 14040E   23349.48220880  .00000638  00000+0  18626-3 0  9997
2 40090  47.0048 116.4978 0017916 217.2513 142.7129 14.54697010500535
